[
  {
    "CCSDS_OMM_VERS": "3.0",
    "COMMENT": "GENERATED VIA SPACE-TRACK.ORG API",
    "CREATION_DATE": "2026-02-19T17:59:09",
    "ORIGINATOR": "18 SPCS",
    "OBJECT_NAME": "COSMOS 2251 DEB",
    "OBJECT_ID": "1993-036JY",
    "CENTER_NAME": "EARTH",
    "REF_FRAME": "TEME",
    "TIME_SYSTEM": "UTC",
    "MEAN_ELEMENT_THEORY": "SGP4",
    "EPOCH": "2026-02-19T15:15:46.081728",
    "MEAN_MOTION": "14.40533238",
    "ECCENTRICITY": "0.00206208",
    "INCLINATION": "74.0394",
    "RA_OF_ASC_NODE": "136.0261",
    "ARG_OF_PERICENTER": "204.6081",
    "MEAN_ANOMALY": "225.6284",
    "EPHEMERIS_TYPE": "0",
    "CLASSIFICATION_TYPE": "U",
    "NORAD_CAT_ID": "34061",
    "ELEMENT_SET_NO": "999",
    "REV_AT_EPOCH": "89172",
    "BSTAR": "0.00027371239000",
    "MEAN_MOTION_DOT": "0.00000847",
    "MEAN_MOTION_DDOT": "0.0000000000000",
    "SEMIMAJOR_AXIS": "7134.874",
    "PERIOD": "99.963",
    "APOAPSIS": "771.452",
    "PERIAPSIS": "742.027",
    "OBJECT_TYPE": "DEBRIS",
    "RCS_SIZE": "SMALL",
    "COUNTRY_CODE": "CIS",
    "LAUNCH_DATE": "1993-06-16",
    "SITE": "PKMTR",
    "DECAY_DATE": null,
    "FILE": "5039972",
    "GP_ID": "313166755",
    "TLE_LINE0": "0 COSMOS 2251 DEB",
    "TLE_LINE1": "1 34061U 93036JY  26050.63595002  .00000847  00000-0  27371-3 0  9990",
    "TLE_LINE2": "2 34061  74.0394 136.0261 0020621 204.6081 225.6284 14.40533238891723"
  },
  {
    "CCSDS_OMM_VERS": "3.0",
    "COMMENT": "GENERATED VIA SPACE-TRACK.ORG API",
    "CREATION_DATE": "2026-02-19T17:59:09",
    "ORIGINATOR": "18 SPCS",
    "OBJECT_NAME": "CZ-6A DEB",
    "OBJECT_ID": "2024-140AEW",
    "CENTER_NAME": "EARTH",
    "REF_FRAME": "TEME",
    "TIME_SYSTEM": "UTC",
    "MEAN_ELEMENT_THEORY": "SGP4",
    "EPOCH": "2026-02-19T15:14:58.356096",
    "MEAN_MOTION": "14.34134370",
    "ECCENTRICITY": "0.00143478",
    "INCLINATION": "89.0233",
    "RA_OF_ASC_NODE": "288.5250",
    "ARG_OF_PERICENTER": "156.2116",
    "MEAN_ANOMALY": "203.9748",
    "EPHEMERIS_TYPE": "0",
    "CLASSIFICATION_TYPE": "U",
    "NORAD_CAT_ID": "64656",
    "ELEMENT_SET_NO": "999",
    "REV_AT_EPOCH": "6909",
    "BSTAR": "0.00136103850000",
    "MEAN_MOTION_DOT": "0.00003827",
    "MEAN_MOTION_DDOT": "0.0000000000000",
    "SEMIMAJOR_AXIS": "7156.082",
    "PERIOD": "100.409",
    "APOAPSIS": "788.214",
    "PERIAPSIS": "767.679",
    "OBJECT_TYPE": "DEBRIS",
    "RCS_SIZE": "SMALL",
    "COUNTRY_CODE": "PRC",
    "LAUNCH_DATE": "2024-08-06",
    "SITE": "TSC",
    "DECAY_DATE": null,
    "FILE": "5039972",
    "GP_ID": "313185013",
    "TLE_LINE0": "0 CZ-6A DEB",
    "TLE_LINE1": "1 64656U 24140AEW 26050.63539764  .00003827  00000-0  13610-2 0  9997",
    "TLE_LINE2": "2 64656  89.0233 288.5250 0014348 156.2116 203.9748 14.34134370 69093"
  },
  {
    "CCSDS_OMM_VERS": "3.0",
    "COMMENT": "GENERATED VIA SPACE-TRACK.ORG API",
    "CREATION_DATE": "2026-02-19T17:59:09",
    "ORIGINATOR": "18 SPCS",
    "OBJECT_NAME": "CZ-6A DEB",
    "OBJECT_ID": "2024-140JJ",
    "CENTER_NAME": "EARTH",
    "REF_FRAME": "TEME",
    "TIME_SYSTEM": "UTC",
    "MEAN_ELEMENT_THEORY": "SGP4",
    "EPOCH": "2026-02-19T15:14:20.193216",
    "MEAN_MOTION": "14.14171946",
    "ECCENTRICITY": "0.00714818",
    "INCLINATION": "89.0163",
    "RA_OF_ASC_NODE": "289.7492",
    "ARG_OF_PERICENTER": "217.0516",
    "MEAN_ANOMALY": "142.5724",
    "EPHEMERIS_TYPE": "0",
    "CLASSIFICATION_TYPE": "U",
    "NORAD_CAT_ID": "60855",
    "ELEMENT_SET_NO": "999",
    "REV_AT_EPOCH": "7830",
    "BSTAR": "0.00034475619000",
    "MEAN_MOTION_DOT": "0.00000686",
    "MEAN_MOTION_DDOT": "0.0000000000000",
    "SEMIMAJOR_AXIS": "7223.267",
    "PERIOD": "101.826",
    "APOAPSIS": "896.766",
    "PERIAPSIS": "793.499",
    "OBJECT_TYPE": "DEBRIS",
    "RCS_SIZE": "MEDIUM",
    "COUNTRY_CODE": "PRC",
    "LAUNCH_DATE": "2024-08-06",
    "SITE": "TSC",
    "DECAY_DATE": null,
    "FILE": "5039972",
    "GP_ID": "313181817",
    "TLE_LINE0": "0 CZ-6A DEB",
    "TLE_LINE1": "1 60855U 24140JJ  26050.63495594  .00000686  00000-0  34476-3 0  9990",
    "TLE_LINE2": "2 60855  89.0163 289.7492 0071482 217.0516 142.5724 14.14171946 78309"
  },
  {
    "CCSDS_OMM_VERS": "3.0",
    "COMMENT": "GENERATED VIA SPACE-TRACK.ORG API",
    "CREATION_DATE": "2026-02-19T17:59:09",
    "ORIGINATOR": "18 SPCS",
    "OBJECT_NAME": "THORAD DELTA 1 DEB",
    "OBJECT_ID": "1974-089BB",
    "CENTER_NAME": "EARTH",
    "REF_FRAME": "TEME",
    "TIME_SYSTEM": "UTC",
    "MEAN_ELEMENT_THEORY": "SGP4",
    "EPOCH": "2026-02-19T15:14:07.256544",
    "MEAN_MOTION": "12.40505787",
    "ECCENTRICITY": "0.00698376",
    "INCLINATION": "101.5374",
    "RA_OF_ASC_NODE": "336.3333",
    "ARG_OF_PERICENTER": "18.0143",
    "MEAN_ANOMALY": "101.8670",
    "EPHEMERIS_TYPE": "0",
    "CLASSIFICATION_TYPE": "U",
    "NORAD_CAT_ID": "8185",
    "ELEMENT_SET_NO": "999",
    "REV_AT_EPOCH": "32018",
    "BSTAR": "0.00025890137000",
    "MEAN_MOTION_DOT": "-0.00000007",
    "MEAN_MOTION_DDOT": "0.0000000000000",
    "SEMIMAJOR_AXIS": "7882.597",
    "PERIOD": "116.082",
    "APOAPSIS": "1559.512",
    "PERIAPSIS": "1449.412",
    "OBJECT_TYPE": "DEBRIS",
    "RCS_SIZE": "SMALL",
    "COUNTRY_CODE": "US",
    "LAUNCH_DATE": "1974-11-15",
    "SITE": "AFWTR",
    "DECAY_DATE": null,
    "FILE": "5039972",
    "GP_ID": "313157427",
    "TLE_LINE0": "0 THORAD DELTA 1 DEB",
    "TLE_LINE1": "1 08185U 74089BB  26050.63480621 -.00000007  00000-0  25890-3 0  9998",
    "TLE_LINE2": "2 08185 101.5374 336.3333 0069838  18.0143 101.8670 12.40505787320186"
  },
  {
    "CCSDS_OMM_VERS": "3.0",
    "COMMENT": "GENERATED VIA SPACE-TRACK.ORG API",
    "CREATION_DATE": "2026-02-19T17:59:09",
    "ORIGINATOR": "18 SPCS",
    "OBJECT_NAME": "THORAD AGENA D DEB",
    "OBJECT_ID": "1970-025AR",
    "CENTER_NAME": "EARTH",
    "REF_FRAME": "TEME",
    "TIME_SYSTEM": "UTC",
    "MEAN_ELEMENT_THEORY": "SGP4",
    "EPOCH": "2026-02-19T15:14:04.408800",
    "MEAN_MOTION": "13.71855589",
    "ECCENTRICITY": "0.00172584",
    "INCLINATION": "100.1201",
    "RA_OF_ASC_NODE": "282.7354",
    "ARG_OF_PERICENTER": "0.3062",
    "MEAN_ANOMALY": "17.0361",
    "EPHEMERIS_TYPE": "0",
    "CLASSIFICATION_TYPE": "U",
    "NORAD_CAT_ID": "4657",
    "ELEMENT_SET_NO": "999",
    "REV_AT_EPOCH": "77860",
    "BSTAR": "0.00053984453000",
    "MEAN_MOTION_DOT": "0.00000440",
    "MEAN_MOTION_DDOT": "0.0000000000000",
    "SEMIMAJOR_AXIS": "7371.054",
    "PERIOD": "104.967",
    "APOAPSIS": "1005.640",
    "PERIAPSIS": "980.197",
    "OBJECT_TYPE": "DEBRIS",
    "RCS_SIZE": "MEDIUM",
    "COUNTRY_CODE": "US",
    "LAUNCH_DATE": "1970-04-08",
    "SITE": "AFWTR",
    "DECAY_DATE": null,
    "FILE": "5039972",
    "GP_ID": "313156012",
    "TLE_LINE0": "0 THORAD AGENA D DEB",
    "TLE_LINE1": "1 04657U 70025AR  26050.63477325  .00000440  00000-0  53984-3 0  9996",
    "TLE_LINE2": "2 04657 100.1201 282.7354 0017258   0.3062  17.0361 13.71855589778602"
  },
  {
    "CCSDS_OMM_VERS": "3.0",
    "COMMENT": "GENERATED VIA SPACE-TRACK.ORG API",
    "CREATION_DATE": "2026-02-19T17:59:09",
    "ORIGINATOR": "18 SPCS",
    "OBJECT_NAME": "CZ-4 DEB",
    "OBJECT_ID": "1999-057AE",
    "CENTER_NAME": "EARTH",
    "REF_FRAME": "TEME",
    "TIME_SYSTEM": "UTC",
    "MEAN_ELEMENT_THEORY": "SGP4",
    "EPOCH": "2026-02-19T15:13:44.470272",
    "MEAN_MOTION": "13.87729434",
    "ECCENTRICITY": "0.02981189",
    "INCLINATION": "98.7458",
    "RA_OF_ASC_NODE": "299.7005",
    "ARG_OF_PERICENTER": "99.7563",
    "MEAN_ANOMALY": "293.4633",
    "EPHEMERIS_TYPE": "0",
    "CLASSIFICATION_TYPE": "U",
    "NORAD_CAT_ID": "26142",
    "ELEMENT_SET_NO": "999",
    "REV_AT_EPOCH": "30811",
    "BSTAR": "0.00030690257000",
    "MEAN_MOTION_DOT": "0.00000480",
    "MEAN_MOTION_DDOT": "0.0000000000000",
    "SEMIMAJOR_AXIS": "7314.736",
    "PERIOD": "103.767",
    "APOAPSIS": "1154.667",
    "PERIAPSIS": "718.535",
    "OBJECT_TYPE": "DEBRIS",
    "RCS_SIZE": "SMALL",
    "COUNTRY_CODE": "PRC",
    "LAUNCH_DATE": "1999-10-14",
    "SITE": "TSC",
    "DECAY_DATE": null,
    "FILE": "5039972",
    "GP_ID": "313161971",
    "TLE_LINE0": "0 CZ-4 DEB",
    "TLE_LINE1": "1 26142U 99057AE  26050.63454248  .00000480  00000-0  30690-3 0  9997",
    "TLE_LINE2": "2 26142  98.7458 299.7005 0298119  99.7563 293.4633 13.87729434308110"
  },
  {
    "CCSDS_OMM_VERS": "3.0",
    "COMMENT": "GENERATED VIA SPACE-TRACK.ORG API",
    "CREATION_DATE": "2026-02-19T17:59:09",
    "ORIGINATOR": "18 SPCS",
    "OBJECT_NAME": "SL-14 DEB",
    "OBJECT_ID": "1991-056AV",
    "CENTER_NAME": "EARTH",
    "REF_FRAME": "TEME",
    "TIME_SYSTEM": "UTC",
    "MEAN_ELEMENT_THEORY": "SGP4",
    "EPOCH": "2026-02-19T15:13:21.292608",
    "MEAN_MOTION": "13.05055569",
    "ECCENTRICITY": "0.01789691",
    "INCLINATION": "82.5811",
    "RA_OF_ASC_NODE": "285.5619",
    "ARG_OF_PERICENTER": "69.3995",
    "MEAN_ANOMALY": "292.6216",
    "EPHEMERIS_TYPE": "0",
    "CLASSIFICATION_TYPE": "U",
    "NORAD_CAT_ID": "45307",
    "ELEMENT_SET_NO": "999",
    "REV_AT_EPOCH": "28314",
    "BSTAR": "0.01794823900000",
    "MEAN_MOTION_DOT": "0.00006283",
    "MEAN_MOTION_DDOT": "0.0000000000000",
    "SEMIMAJOR_AXIS": "7620.483",
    "PERIOD": "110.340",
    "APOAPSIS": "1378.731",
    "PERIAPSIS": "1105.965",
    "OBJECT_TYPE": "DEBRIS",
    "RCS_SIZE": "SMALL",
    "COUNTRY_CODE": "CIS",
    "LAUNCH_DATE": "1991-08-15",
    "SITE": "PKMTR",
    "DECAY_DATE": null,
    "FILE": "5039972",
    "GP_ID": "313172157",
    "TLE_LINE0": "0 SL-14 DEB",
    "TLE_LINE1": "1 45307U 91056AV  26050.63427422  .00006283  00000-0  17948-1 0  9992",
    "TLE_LINE2": "2 45307  82.5811 285.5619 0178969  69.3995 292.6216 13.05055569283148"
  }
]